[Satellite]
VERSION=1.1
NAME=IRIDIUM 69 [-]
NICKNAME=IRIDIUM 69 [-]
TLE1=1 25319U 98026A   20157.99426766  .00000093  00000-0  23788-4 0  9993
TLE2=2 25319  86.3984 149.3611 0001548  23.2490 336.8778 14.38845881159011
STATUS=2
